NORAD_CAT_ID,OBJECT_NAME,OBJECT_TYPE,EPOCH,MEAN_MOTION,ECCENTRICITY,INCLINATION,RA_OF_ASC_NODE,ARG_OF_PERICENTER,MEAN_ANOMALY,BSTAR,MEAN_MOTION_DOT,MEAN_MOTION_DDOT,TLE_LINE0,TLE_LINE1,TLE_LINE2,SEMIMAJOR_AXIS,PERIOD,APOGEE,PERIGEE,DECAYED
52136.0,STARLINK-3720,PAYLOAD,2024-02-26 13:50:15,15.08832753,0.0001467,53.217,160.5935,90.4461,269.6699,-0.00014629,-2.615e-05,0.0,0 STARLINK-3720,1 52136U 22029BA  24057.57656835 -.00002615  00000-0 -14629-3 0  9996,2 52136  53.2170 160.5935 0001467  90.4461 269.6699 15.08832753108905,6917.903,95.438,540.782,538.753,0.0
52136.0,STARLINK-3720,PAYLOAD,2024-02-27 12:05:39,15.08845914,0.0001425,53.2165,156.4321,96.7264,263.389,0.00013157,1.807e-05,0.0,0 STARLINK-3720,1 52136U 22029BA  24058.50392523  .00001807  00000-0  13157-3 0  9996,2 52136  53.2165 156.4321 0001425  96.7264 263.3890 15.08845914109049,6917.862,95.437,540.713,538.742,0.0
52136.0,STARLINK-3720,PAYLOAD,2024-02-27 13:41:02,15.08848073,0.0001446,53.2169,156.1354,95.0932,265.0225,0.00017581,2.512e-05,0.0,0 STARLINK-3720,1 52136U 22029BA  24058.57016406  .00002512  00000-0  17581-3 0  9995,2 52136  53.2169 156.1354 0001446  95.0932 265.0225 15.08848073109054,6917.856,95.437,540.721,538.72,0.0
52136.0,STARLINK-3720,PAYLOAD,2024-02-28 11:56:26,15.08834013,0.0001558,53.2174,151.9734,96.4029,263.7141,9.9144e-05,1.29e-05,0.0,0 STARLINK-3720,1 52136U 22029BA  24059.49753320  .00001290  00000-0  99144-4 0  9998,2 52136  53.2174 151.9734 0001558  96.4029 263.7141 15.08834013109197,6917.899,95.438,540.841,538.686,0.0
52136.0,STARLINK-3720,PAYLOAD,2024-02-28 13:31:50,15.08833486,0.0001531,53.2184,151.6755,93.801,266.3157,0.00014909,2.085e-05,0.0,0 STARLINK-3720,1 52136U 22029BA  24059.56377473  .00002085  00000-0  14909-3 0  9995,2 52136  53.2184 151.6755 0001531  93.8010 266.3157 15.08833486109201,6917.9,95.438,540.824,538.706,0.0
52136.0,STARLINK-3720,PAYLOAD,2024-02-29 11:47:13,15.08849084,0.0001551,53.2183,147.5119,87.1833,272.9337,4.8422e-05,4.83e-06,0.0,0 STARLINK-3720,1 52136U 22029BA  24060.49112746  .00000483  00000-0  48422-4 0  9997,2 52136  53.2183 147.5119 0001551  87.1833 272.9337 15.08849084109348,6917.853,95.437,540.791,538.645,0.0
52136.0,STARLINK-3720,PAYLOAD,2024-02-29 13:22:36,15.08851278,0.0001523,53.218,147.2138,87.7538,272.3629,9.1262e-05,1.165e-05,0.0,0 STARLINK-3720,1 52136U 22029BA  24060.55736439  .00001165  00000-0  91262-4 0  9993,2 52136  53.2180 147.2138 0001523  87.7538 272.3629 15.08851278109357,6917.846,95.437,540.765,538.657,0.0
52136.0,STARLINK-3720,PAYLOAD,2024-02-29 14:57:58,15.08860358,0.0001525,53.2181,146.9146,100.3188,259.7977,0.00014482,2.019e-05,0.0,0 STARLINK-3720,1 52136U 22029BA  24060.62359605  .00002019  00000-0  14482-3 0  9994,2 52136  53.2181 146.9146 0001525 100.3188 259.7977 15.08860358109363,6917.818,95.436,540.738,538.628,0.0
52136.0,STARLINK-3720,PAYLOAD,2024-02-29 22:54:55,15.08845058,0.0001211,53.2187,145.431,89.5579,270.5552,7.9952e-05,9.85e-06,0.0,0 STARLINK-3720,1 52136U 22029BA  24060.95480544  .00000985  00000-0  79952-4 0  9991,2 52136  53.2187 145.4310 0001211  89.5579 270.5552 15.08845058109416,6917.865,95.437,540.568,538.892,0.0
52136.0,STARLINK-3720,PAYLOAD,2024-03-01 11:38:00,15.08839374,0.0001476,53.2159,143.05,92.6537,267.4624,0.0001154,1.549e-05,0.0,0 STARLINK-3720,1 52136U 22029BA  24061.48473067  .00001549  00000-0  11540-3 0  9997,2 52136  53.2159 143.0500 0001476  92.6537 267.4624 15.08839374109499,6917.882,95.438,540.768,538.726,0.0
52136.0,STARLINK-3720,PAYLOAD,2024-03-02 11:28:47,15.08848424,0.000146,53.2155,138.5894,97.1031,263.0128,0.0001242,1.69e-05,0.0,0 STARLINK-3720,1 52136U 22029BA  24062.47832374  .00001690  00000-0  12420-3 0  9992,2 52136  53.2155 138.5894 0001460  97.1031 263.0128 15.08848424109646,6917.855,95.437,540.73,538.71,0.0
52136.0,STARLINK-3720,PAYLOAD,2024-03-03 11:19:35,15.08822791,0.0001442,53.2173,134.1297,101.5632,258.5522,0.00030447,4.559e-05,0.0,0 STARLINK-3720,1 52136U 22029BA  24063.47193703  .00004559  00000-0  30447-3 0  9995,2 52136  53.2173 134.1297 0001442 101.5632 258.5522 15.08822791109794,6917.933,95.439,540.796,538.8,0.0
52136.0,STARLINK-3720,PAYLOAD,2024-03-04 11:10:20,15.08857687,0.0001561,53.2171,129.6698,98.6176,261.4993,0.00024862,3.673e-05,0.0,0 STARLINK-3720,1 52136U 22029BA  24064.46551877  .00003673  00000-0  24862-3 0  9995,2 52136  53.2171 129.6698 0001561  98.6176 261.4993 15.08857687109941,6917.826,95.436,540.771,538.611,0.0
52136.0,STARLINK-3720,PAYLOAD,2024-03-05 09:25:46,15.08828974,0.0001505,53.2168,125.507,106.9368,253.1789,-9.3706e-05,-1.779e-05,0.0,0 STARLINK-3720,1 52136U 22029BA  24065.39289517 -.00001779  00000-0 -93706-4 0  9998,2 52136  53.2168 125.5070 0001505 106.9368 253.1789 15.08828974110085,6917.914,95.438,540.82,538.738,0.0
52136.0,STARLINK-3720,PAYLOAD,2024-03-06 09:16:33,15.08833538,0.0001549,53.2168,121.0449,105.1946,254.9217,0.00019589,2.83e-05,0.0,0 STARLINK-3720,1 52136U 22029BA  24066.38650137  .00002830  00000-0  19589-3 0  9991,2 52136  53.2168 121.0449 0001549 105.1946 254.9217 15.08833538110231,6917.9,95.438,540.837,538.694,0.0
52136.0,STARLINK-3720,PAYLOAD,2024-03-07 12:18:07,15.08846079,0.0001769,53.2178,115.9889,86.579,273.5404,0.00035021,5.291e-05,0.0,0 STARLINK-3720,1 52136U 22029BA  24067.51258303  .00005291  00000-0  35021-3 0  9999,2 52136  53.2178 115.9889 0001769  86.5790 273.5404 15.08846079110403,6917.862,95.437,540.951,538.503,0.0
52136.0,STARLINK-3720,PAYLOAD,2024-03-08 10:33:30,15.08851594,0.0001624,53.2165,111.8271,92.3507,267.7671,0.00047723,7.318e-05,0.0,0 STARLINK-3720,1 52136U 22029BA  24068.43993841  .00007318  00000-0  47723-3 0  9998,2 52136  53.2165 111.8271 0001624  92.3507 267.7671 15.08851594110544,6917.845,95.437,540.833,538.586,0.0
52136.0,STARLINK-3720,PAYLOAD,2024-03-08 20:05:49,15.08848713,0.0001741,53.2174,110.0429,84.953,275.1661,0.00015778,2.224e-05,0.0,0 STARLINK-3720,1 52136U 22029BA  24068.83737646  .00002224  00000-0  15778-3 0  9997,2 52136  53.2174 110.0429 0001741  84.9530 275.1661 15.08848713110601,6917.854,95.437,540.923,538.514,0.0
52136.0,STARLINK-3720,PAYLOAD,2024-03-09 11:59:40,15.08845956,0.0001557,53.2159,107.0643,101.5858,258.5309,8.536e-05,1.071e-05,0.0,0 STARLINK-3720,1 52136U 22029BA  24069.49977521  .00001071  00000-0  85360-4 0  9992,2 52136  53.2159 107.0643 0001557 101.5858 258.5309 15.08845956110703,6917.862,95.437,540.804,538.65,0.0
52136.0,STARLINK-3720,PAYLOAD,2024-03-09 19:56:36,15.08843109,0.000162,53.2166,105.5799,94.0401,266.0776,4.6229e-05,4.48e-06,0.0,0 STARLINK-3720,1 52136U 22029BA  24069.83097828  .00000448  00000-0  46229-4 0  9991,2 52136  53.2166 105.5799 0001620  94.0401 266.0776 15.08843109110752,6917.871,95.437,540.857,538.615,0.0
52136.0,STARLINK-3720,PAYLOAD,2024-03-10 08:39:41,15.08838472,0.0001597,53.216,103.2005,98.3706,261.7467,0.00028334,4.224e-05,0.0,0 STARLINK-3720,1 52136U 22029BA  24070.36089987  .00004224  00000-0  28334-3 0  9990,2 52136  53.2160 103.2005 0001597  98.3706 261.7467 15.08838472110834,6917.885,95.438,540.855,538.645,0.0
52136.0,STARLINK-3720,PAYLOAD,2024-03-11 08:30:30,15.08806579,0.0001614,53.2156,98.7402,96.0297,264.0879,-0.00039015,-6.486e-05,0.0,0 STARLINK-3720,1 52136U 22029BA  24071.35451469 -.00006486  00000-0 -39015-3 0  9990,2 52136  53.2156  98.7402 0001614  96.0297 264.0879 15.08806579110980,6917.983,95.44,540.964,538.731,0.0
52136.0,STARLINK-3720,PAYLOAD,2024-03-12 05:10:31,15.08824457,0.0001727,53.2161,94.8754,97.1075,263.0114,-1.7073e-05,-5.6e-06,0.0,0 STARLINK-3720,1 52136U 22029BA  24072.21564007 -.00000560  00000-0 -17073-4 0  9997,2 52136  53.2161  94.8754 0001727  97.1075 263.0114 15.08824457111116,6917.928,95.439,540.988,538.598,0.0
52136.0,STARLINK-3720,PAYLOAD,2024-03-12 08:21:17,15.08829359,0.0001526,53.2156,94.2799,95.6944,264.4223,8.1293e-05,1.006e-05,0.0,0 STARLINK-3720,1 52136U 22029BA  24072.34811697  .00001006  00000-0  81293-4 0  9990,2 52136  53.2156  94.2799 0001526  95.6944 264.4223 15.08829359111132,6917.913,95.438,540.834,538.722,0.0
52136.0,STARLINK-3720,PAYLOAD,2024-03-13 11:22:50,15.08874497,0.0001797,53.2161,89.2256,100.2626,259.8569,0.0012112,0.00019059,0.0,0 STARLINK-3720,1 52136U 22029BA  24073.47419397  .00019059  00000-0  12112-2 0  9995,2 52136  53.2161  89.2256 0001797 100.2626 259.8569 15.08874497111303,6917.775,95.435,540.883,538.397,0.0
52136.0,STARLINK-3720,PAYLOAD,2024-03-13 17:44:22,15.08872392,0.0001739,53.2149,88.0344,93.0209,267.0982,0.00095947,0.00015028,0.0,0 STARLINK-3720,1 52136U 22029BA  24073.73915159  .00015028  00000-0  95947-3 0  9991,2 52136  53.2149  88.0344 0001739  93.0209 267.0982 15.08872392111342,6917.781,95.436,540.849,538.443,0.0
52136.0,STARLINK-3720,PAYLOAD,2024-03-14 04:52:04,15.08862145,0.0002049,53.2169,85.9559,100.4511,259.6712,0.00036519,5.532e-05,0.0,0 STARLINK-3720,1 52136U 22029BA  24074.20282784  .00005532  00000-0  36519-3 0  9994,2 52136  53.2169  85.9559 0002049 100.4511 259.6712 15.08862145111413,6917.813,95.436,541.095,538.26,0.0
52136.0,STARLINK-3720,PAYLOAD,2024-03-14 06:27:27,15.08861418,0.000195,53.217,85.6586,101.4313,258.6898,0.00033259,5.012e-05,0.0,0 STARLINK-3720,1 52136U 22029BA  24074.26906686  .00005012  00000-0  33259-3 0  9995,2 52136  53.2170  85.6586 0001950 101.4313 258.6898 15.08861418111420,6917.815,95.436,541.029,538.331,0.0
52136.0,STARLINK-3720,PAYLOAD,2024-03-14 08:02:50,15.08861634,0.0001918,53.2168,85.3612,101.2675,258.8532,0.00035245,5.329e-05,0.0,0 STARLINK-3720,1 52136U 22029BA  24074.33530604  .00005329  00000-0  35245-3 0  9994,2 52136  53.2168  85.3612 0001918 101.2675 258.8532 15.08861634111435,6917.814,95.436,541.006,538.352,0.0
52136.0,STARLINK-3720,PAYLOAD,2024-03-15 04:42:51,15.08849928,0.0001912,53.2159,81.4933,86.9764,273.1447,0.00042619,6.503e-05,0.0,0 STARLINK-3720,1 52136U 22029BA  24075.19642717  .00006503  00000-0  42619-3 0  9996,2 52136  53.2159  81.4933 0001912  86.9764 273.1447 15.08849928111561,6917.85,95.437,541.038,538.392,0.0
